{"type": "FeatureCollection", "features": [ {"type": "Feature", "properties": {"norad_id": 36232, "name": "FENGYUN 1C DEB", "group": "fengyun-1c-debris", "lat": 22.46735873526124, "lon": 151.6561594347286, "alt_km": 894.1854440941543, "timestamp": "2025-12-09T21:34:11.696331+00:00", "meta": {"OBJECT_NAME": "FENGYUN 1C DEB", "OBJECT_ID": "1999-025DVH", "EPOCH": "2025-12-06T16:20:06.214272", "MEAN_MOTION": 14.12489244, "ECCENTRICITY": 0.01193626, "INCLINATION": 98.7041, "RA_OF_ASC_NODE": 324.8972, "ARG_OF_PERICENTER": 45.2635, "MEAN_ANOMALY": 315.8179, "EPHEMERIS_TYPE": 0, "CLASSIFICATION_TYPE": "U", "NORAD_CAT_ID": 36232, "ELEMENT_SET_NO": 999, "REV_AT_EPOCH": 61650, "BSTAR": 0.0005849679, "MEAN_MOTION_DOT": 1.114e-05, "MEAN_MOTION_DDOT": 0}, "tle": {"line1": "1 36232U 99025DVH 25340.68062748  .00001114  00000+0  58497-3 0  9998", "line2": "2 36232  98.7041 324.8972 0119362  45.2635 315.8179 14.12489244616500"}}, "geometry": {"type": "Point", "coordinates": [151.6561594347286, 22.46735873526124]}}, {"type": "Feature", "properties": {"norad_id": 36234, "name": "FENGYUN 1C DEB", "group": "fengyun-1c-debris", "lat": -50.66838923579268, "lon": -137.15802990112755, "alt_km": 1322.3465808206338, "timestamp": "2025-12-09T21:34:11.696341+00:00", "meta": {"OBJECT_NAME": "FENGYUN 1C DEB", "OBJECT_ID": "1999-025DVK", "EPOCH": "2025-12-08T10:31:28.850304", "MEAN_MOTION": 13.45655828, "ECCENTRICITY": 0.03174488, "INCLINATION": 99.0031, "RA_OF_ASC_NODE": 52.6849, "ARG_OF_PERICENTER": 39.1104, "MEAN_ANOMALY": 323.2521, "EPHEMERIS_TYPE": 0, "CLASSIFICATION_TYPE": "U", "NORAD_CAT_ID": 36234, "ELEMENT_SET_NO": 999, "REV_AT_EPOCH": 87889, "BSTAR": 0.00050484626, "MEAN_MOTION_DOT": 3.7e-06, "MEAN_MOTION_DDOT": 0}, "tle": {"line1": "1 36234U 99025DVK 25342.43852836  .00000370  00000+0  50485-3 0  9992", "line2": "2 36234  99.0031  52.6849 0317448  39.1104 323.2521 13.45655828878896"}}, "geometry": {"type": "Point", "coordinates": [-137.15802990112755, -50.66838923579268]}}, {"type": "Feature", "properties": {"norad_id": 36236, "name": "FENGYUN 1C DEB", "group": "fengyun-1c-debris", "lat": -13.025320776771611, "lon": 26.53592810471618, "alt_km": 857.3906548184495, "timestamp": "2025-12-09T21:34:11.696351+00:00", "meta": {"OBJECT_NAME": "FENGYUN 1C DEB", "OBJECT_ID": "1999-025DVM", "EPOCH": "2025-12-09T09:28:07.041216", "MEAN_MOTION": 13.8195283, "ECCENTRICITY": 0.01496223, "INCLINATION": 98.8503, "RA_OF_ASC_NODE": 23.997, "ARG_OF_PERICENTER": 7.2762, "MEAN_ANOMALY": 353.0517, "EPHEMERIS_TYPE": 0, "CLASSIFICATION_TYPE": "U", "NORAD_CAT_ID": 36236, "ELEMENT_SET_NO": 999, "REV_AT_EPOCH": 59701, "BSTAR": 0.000464945, "MEAN_MOTION_DOT": 5.03e-06, "MEAN_MOTION_DDOT": 0}, "tle": {"line1": "1 36236U 99025DVM 25343.39452594  .00000503  00000+0  46494-3 0  9990", "line2": "2 36236  98.8503  23.9970 0149622   7.2762 353.0517 13.81952830597019"}}, "geometry": {"type": "Point", "coordinates": [26.53592810471618, -13.025320776771611]}}, {"type": "Feature", "properties": {"norad_id": 36238, "name": "FENGYUN 1C DEB", "group": "fengyun-1c-debris", "lat": 3.631242725406104, "lon": 137.01954475432407, "alt_km": 859.5988458854226, "timestamp": "2025-12-09T21:34:11.696361+00:00", "meta": {"OBJECT_NAME": "FENGYUN 1C DEB", "OBJECT_ID": "1999-025DVP", "EPOCH": "2025-12-08T15:49:58.240704", "MEAN_MOTION": 14.1238865, "ECCENTRICITY": 0.00201825, "INCLINATION": 98.6467, "RA_OF_ASC_NODE": 315.2708, "ARG_OF_PERICENTER": 294.0016, "MEAN_ANOMALY": 65.9044, "EPHEMERIS_TYPE": 0, "CLASSIFICATION_TYPE": "U", "NORAD_CAT_ID": 36238, "ELEMENT_SET_NO": 999, "REV_AT_EPOCH": 86960, "BSTAR": 0.00014863142, "MEAN_MOTION_DOT": 2.32e-06, "MEAN_MOTION_DDOT": 0}, "tle": {"line1": "1 36238U 99025DVP 25342.65970186  .00000232  00000+0  14863-3 0  9996", "line2": "2 36238  98.6467 315.2708 0020182 294.0016  65.9044 14.12388650869600"}}, "geometry": {"type": "Point", "coordinates": [137.01954475432407, 3.631242725406104]}}, {"type": "Feature", "properties": {"norad_id": 36244, "name": "FENGYUN 1C DEB", "group": "fengyun-1c-debris", "lat": -49.131738606373155, "lon": 104.9332315680527, "alt_km": 782.3979844215, "timestamp": "2025-12-09T21:34:11.696371+00:00", "meta": {"OBJECT_NAME": "FENGYUN 1C DEB", "OBJECT_ID": "1999-025DVV", "EPOCH": "2025-12-01T06:30:33.359616", "MEAN_MOTION": 14.24827854, "ECCENTRICITY": 0.00483696, "INCLINATION": 98.9263, "RA_OF_ASC_NODE": 85.6985, "ARG_OF_PERICENTER": 317.9202, "MEAN_ANOMALY": 41.8266, "EPHEMERIS_TYPE": 0, "CLASSIFICATION_TYPE": "U", "NORAD_CAT_ID": 36244, "ELEMENT_SET_NO": 999, "REV_AT_EPOCH": 91815, "BSTAR": 0.0019641891, "MEAN_MOTION_DOT": 4.594e-05, "MEAN_MOTION_DDOT": 0}, "tle": {"line1": "1 36244U 99025DVV 25335.27121944  .00004594  00000+0  19642-2 0  9997", "line2": "2 36244  98.9263  85.6985 0048369 317.9202  41.8266 14.24827854918159"}}, "geometry": {"type": "Point", "coordinates": [104.9332315680527, -49.131738606373155]}}, {"type": "Feature", "properties": {"norad_id": 36247, "name": "FENGYUN 1C DEB", "group": "fengyun-1c-debris", "lat": 6.585428152271835, "lon": 178.05996576686937, "alt_km": 868.824049717754, "timestamp": "2025-12-09T21:34:11.696381+00:00", "meta": {"OBJECT_NAME": "FENGYUN 1C DEB", "OBJECT_ID": "1999-025DVY", "EPOCH": "2025-12-01T11:45:50.986944", "MEAN_MOTION": 14.33529137, "ECCENTRICITY": 0.01878056, "INCLINATION": 98.2683, "RA_OF_ASC_NODE": 349.0587, "ARG_OF_PERICENTER": 67.2123, "MEAN_ANOMALY": 294.8783, "EPHEMERIS_TYPE": 0, "CLASSIFICATION_TYPE": "U", "NORAD_CAT_ID": 36247, "ELEMENT_SET_NO": 999, "REV_AT_EPOCH": 70101, "BSTAR": 0.00050385684, "MEAN_MOTION_DOT": 1.653e-05, "MEAN_MOTION_DDOT": 0}, "tle": {"line1": "1 36247U 99025DVY 25335.49017346  .00001653  00000+0  50386-3 0  9998", "line2": "2 36247  98.2683 349.0587 0187805  67.2123 294.8783 14.33529137701014"}}, "geometry": {"type": "Point", "coordinates": [178.05996576686937, 6.585428152271835]}}, {"type": "Feature", "properties": {"norad_id": 36254, "name": "FENGYUN 1C DEB", "group": "fengyun-1c-debris", "lat": 72.93546880937127, "lon": -95.88630892525647, "alt_km": 479.0607197760628, "timestamp": "2025-12-09T21:34:11.696391+00:00", "meta": {"OBJECT_NAME": "FENGYUN 1C DEB", "OBJECT_ID": "1999-025DWF", "EPOCH": "2025-12-05T14:18:33.750144", "MEAN_MOTION": 15.16014702, "ECCENTRICITY": 0.00460473, "INCLINATION": 99.5277, "RA_OF_ASC_NODE": 291.891, "ARG_OF_PERICENTER": 66.6494, "MEAN_ANOMALY": 293.9567, "EPHEMERIS_TYPE": 0, "CLASSIFICATION_TYPE": "U", "NORAD_CAT_ID": 36254, "ELEMENT_SET_NO": 999, "REV_AT_EPOCH": 60668, "BSTAR": 0.0055743559, "MEAN_MOTION_DOT": 0.00111504, "MEAN_MOTION_DDOT": 0}, "tle": {"line1": "1 36254U 99025DWF 25339.59622396  .00111504  00000+0  55744-2 0  9997", "line2": "2 36254  99.5277 291.8910 0046047  66.6494 293.9567 15.16014702606681"}}, "geometry": {"type": "Point", "coordinates": [-95.88630892525647, 72.93546880937127]}}, {"type": "Feature", "properties": {"norad_id": 36255, "name": "FENGYUN 1C DEB", "group": "fengyun-1c-debris", "lat": -78.4615225961836, "lon": -41.18654853009278, "alt_km": 788.6531801531355, "timestamp": "2025-12-09T21:34:11.696402+00:00", "meta": {"OBJECT_NAME": "FENGYUN 1C DEB", "OBJECT_ID": "1999-025DWG", "EPOCH": "2025-12-08T13:21:35.838720", "MEAN_MOTION": 14.36543317, "ECCENTRICITY": 0.0063675, "INCLINATION": 99.4343, "RA_OF_ASC_NODE": 262.8115, "ARG_OF_PERICENTER": 175.6375, "MEAN_ANOMALY": 3.5448, "EPHEMERIS_TYPE": 0, "CLASSIFICATION_TYPE": "U", "NORAD_CAT_ID": 36255, "ELEMENT_SET_NO": 999, "REV_AT_EPOCH": 63950, "BSTAR": 0.0012922, "MEAN_MOTION_DOT": 3.835e-05, "MEAN_MOTION_DDOT": 0}, "tle": {"line1": "1 36255U 99025DWG 25342.55666480  .00003835  00000+0  12922-2 0  9998", "line2": "2 36255  99.4343 262.8115 0063675 175.6375   3.5448 14.36543317639505"}}, "geometry": {"type": "Point", "coordinates": [-41.18654853009278, -78.4615225961836]}}, {"type": "Feature", "properties": {"norad_id": 36258, "name": "FENGYUN 1C DEB", "group": "fengyun-1c-debris", "lat": 4.854507459181319, "lon": 12.25562309188721, "alt_km": 724.1641904003391, "timestamp": "2025-12-09T21:34:11.696412+00:00", "meta": {"OBJECT_NAME": "FENGYUN 1C DEB", "OBJECT_ID": "1999-025DWK", "EPOCH": "2025-12-08T19:29:40.285248", "MEAN_MOTION": 14.74820151, "ECCENTRICITY": 0.01735482, "INCLINATION": 99.0872, "RA_OF_ASC_NODE": 11.8157, "ARG_OF_PERICENTER": 137.841, "MEAN_ANOMALY": 223.6295, "EPHEMERIS_TYPE": 0, "CLASSIFICATION_TYPE": "U", "NORAD_CAT_ID": 36258, "ELEMENT_SET_NO": 999, "REV_AT_EPOCH": 90764, "BSTAR": 0.00049280161, "MEAN_MOTION_DOT": 4.142e-05, "MEAN_MOTION_DDOT": 0}, "tle": {"line1": "1 36258U 99025DWK 25342.81227182  .00004142  00000+0  49280-3 0  9992", "line2": "2 36258  99.0872  11.8157 0173548 137.8410 223.6295 14.74820151907644"}}, "geometry": {"type": "Point", "coordinates": [12.25562309188721, 4.854507459181319]}}, {"type": "Feature", "properties": {"norad_id": 36260, "name": "FENGYUN 1C DEB", "group": "fengyun-1c-debris", "lat": 45.109643721443234, "lon": -22.641809531896694, "alt_km": 846.2213755011016, "timestamp": "2025-12-09T21:34:11.696422+00:00", "meta": {"OBJECT_NAME": "FENGYUN 1C DEB", "OBJECT_ID": "1999-025DWM", "EPOCH": "2025-12-09T11:10:27.372576", "MEAN_MOTION": 14.1536966, "ECCENTRICITY": 0.0014937, "INCLINATION": 98.6616, "RA_OF_ASC_NODE": 345.7393, "ARG_OF_PERICENTER": 259.6396, "MEAN_ANOMALY": 100.3094, "EPHEMERIS_TYPE": 0, "CLASSIFICATION_TYPE": "U", "NORAD_CAT_ID": 36260, "ELEMENT_SET_NO": 999, "REV_AT_EPOCH": 87762, "BSTAR": 0.00030506575, "MEAN_MOTION_DOT": 5.52e-06, "MEAN_MOTION_DDOT": 0}, "tle": {"line1": "1 36260U 99025DWM 25343.46559459  .00000552  00000+0  30507-3 0  9995", "line2": "2 36260  98.6616 345.7393 0014937 259.6396 100.3094 14.15369660877621"}}, "geometry": {"type": "Point", "coordinates": [-22.641809531896694, 45.109643721443234]}}]}